0 TELECOM 1A
1 15159U 84081B   13280.98946534 -.00000191  00000-0  00000+0 0  1920
2 15159 015.1320 015.6696 0030156 280.8647 078.8046 00.98402468 73013
0 TELECOM 1A
1 15159U 84081B   13285.05423400 -.00000225  00000-0  00000+0 0  1934
2 15159 015.1354 015.6264 0030067 281.0815 078.5825 00.98402434 73051
0 TELECOM 1A
1 15159U 84081B   13287.08661994 -.00000207  00000-0  00000+0 0  1942
2 15159 015.1370 015.6050 0029953 281.2372 078.4207 00.98401901 73077
0 TELECOM 1A
1 15159U 84081B   13289.11902217 -.00000170  00000-0  00000+0 0  1954
2 15159 015.1388 015.5835 0030026 281.1390 078.5130 00.98401200 73098
0 TELECOM 1A
1 15159U 84081B   13293.18386831 -.00000075  00000-0  00000+0 0  1969
2 15159 015.1423 015.5401 0029888 281.2476 078.3975 00.98399858 73132
